PROBA-1                 
1 26958U 01049B   26066.63263581  .00003700  00000+0  24272-3 0  9997
2 26958  97.9622  71.6387 0056834 105.7879 254.9624 15.07008353328324
CUTE-1 (CO-55)          
1 27844U 03031E   26066.59677279  .00000487  00000+0  23007-3 0  9997
2 27844  98.6780  76.4215 0010613 117.8292 242.3964 14.24264289177211
CUBESAT XI-IV (CO-57)   
1 27848U 03031J   26066.46430388  .00000412  00000+0  20014-3 0  9998
2 27848  98.6810  76.0849 0010291 134.6270 225.5750 14.23559596176901
APRIZESAT 4             
1 35684U 09041D   26066.63165577  .00001224  00000+0  15288-3 0  9995
2 35684  98.1490 139.9119 0042188 291.5507  68.1212 14.83704406896307
APRIZESAT 3             
1 35686U 09041F   26066.37006859  .00002715  00000+0  23902-3 0  9993
2 35686  98.1900 214.8270 0063110  44.2825 316.3419 14.95892752901152
PROBA-2                 
1 36037U 09059B   26066.45044076  .00000461  00000+0  11815-3 0  9991
2 36037  98.2429 251.2148 0012243 231.6652 128.3446 14.54789813866733
APRIZESAT 5             
1 37792U 11044E   26066.59342645  .00002138  00000+0  27831-3 0  9993
2 37792  98.2402 356.8070 0051795 331.3432  28.4935 14.80850321783753
APRIZESAT 6             
1 37793U 11044F   26066.65335522  .00001409  00000+0  20587-3 0  9998
2 37793  98.2419 335.0641 0044351  51.8566  11.3431 14.76747751782160
PROBA-V                 
1 39159U 13021A   26066.55689466  .00000118  00000+0  69968-4 0  9994
2 39159  98.3504  50.2271 0005336  74.7424 285.4345 14.23573019666655
APRIZESAT 7             
1 39416U 13066A   26066.30970574  .00001910  00000+0  19536-3 0  9991
2 39416  97.7600  21.0840 0035665 186.6338 173.4414 14.91274956666043
APRIZESAT 8             
1 39425U 13066K   26066.36733864  .00001986  00000+0  22184-3 0  9992
2 39425  97.8116  15.3390 0044590 260.8349  98.7821 14.87417032664538
BUGSAT-1 (TITA)         
1 40014U 14033E   26066.65626192  .00011080  00000+0  59963-3 0  9991
2 40014  98.0429 153.3654 0029101 165.2912 194.9172 15.14467976640462
SAUDISAT 4              
1 40016U 14033G   26066.66902254  .00001204  00000+0  16547-3 0  9998
2 40016  97.7408 216.4121 0045850  45.1488 315.3434 14.79385951631068
APRIZESAT 9             
1 40018U 14033J   26066.32464630  .00001571  00000+0  23805-3 0  9996
2 40018  97.8876 202.1193 0066671 166.7458 193.5522 14.74068214628551
APRIZESAT 10            
1 40019U 14033K   26066.35386697  .00001237  00000+0  20186-3 0  9994
2 40019  97.9474 195.6898 0077879 238.4710 120.8874 14.70747554627284
TECHDEMOSAT-1 (TDS-1)   
1 40076U 14037H   26066.47303475  .00015319  00000+0  90718-3 0  9991
2 40076  98.3780  48.7752 0004534 246.4352 113.6399 15.11517592632852
