[{"OBJECT_NAME":"PROBA-1","OBJECT_ID":"2001-049B","EPOCH":"2026-03-07T15:10:59.733984","MEAN_MOTION":15.07008353,"ECCENTRICITY":0.0056834,"INCLINATION":97.9622,"RA_OF_ASC_NODE":71.6387,"ARG_OF_PERICENTER":105.7879,"MEAN_ANOMALY":254.9624,"EPHEMERIS_TYPE":0,"CLASSIFICATION_TYPE":"U","NORAD_CAT_ID":26958,"ELEMENT_SET_NO":999,"REV_AT_EPOCH":32832,"BSTAR":0.00024271878,"MEAN_MOTION_DOT":3.7e-5,"MEAN_MOTION_DDOT":0},{"OBJECT_NAME":"CUTE-1 (CO-55)","OBJECT_ID":"2003-031E","EPOCH":"2026-03-07T14:19:21.169056","MEAN_MOTION":14.24264289,"ECCENTRICITY":0.00106132,"INCLINATION":98.678,"RA_OF_ASC_NODE":76.4215,"ARG_OF_PERICENTER":117.8292,"MEAN_ANOMALY":242.3964,"EPHEMERIS_TYPE":0,"CLASSIFICATION_TYPE":"U","NORAD_CAT_ID":27844,"ELEMENT_SET_NO":999,"REV_AT_EPOCH":17721,"BSTAR":0.00023007097,"MEAN_MOTION_DOT":4.87e-6,"MEAN_MOTION_DDOT":0},{"OBJECT_NAME":"CUBESAT XI-IV (CO-57)","OBJECT_ID":"2003-031J","EPOCH":"2026-03-07T11:08:35.855232","MEAN_MOTION":14.23559596,"ECCENTRICITY":0.00102913,"INCLINATION":98.681,"RA_OF_ASC_NODE":76.0849,"ARG_OF_PERICENTER":134.627,"MEAN_ANOMALY":225.575,"EPHEMERIS_TYPE":0,"CLASSIFICATION_TYPE":"U","NORAD_CAT_ID":27848,"ELEMENT_SET_NO":999,"REV_AT_EPOCH":17690,"BSTAR":0.00020013879,"MEAN_MOTION_DOT":4.12e-6,"MEAN_MOTION_DDOT":0},{"OBJECT_NAME":"APRIZESAT 4","OBJECT_ID":"2009-041D","EPOCH":"2026-03-07T15:09:35.058528","MEAN_MOTION":14.83704406,"ECCENTRICITY":0.00421883,"INCLINATION":98.149,"RA_OF_ASC_NODE":139.9119,"ARG_OF_PERICENTER":291.5507,"MEAN_ANOMALY":68.1212,"EPHEMERIS_TYPE":0,"CLASSIFICATION_TYPE":"U","NORAD_CAT_ID":35684,"ELEMENT_SET_NO":999,"REV_AT_EPOCH":89630,"BSTAR":0.0001528791,"MEAN_MOTION_DOT":1.224e-5,"MEAN_MOTION_DDOT":0},{"OBJECT_NAME":"APRIZESAT 3","OBJECT_ID":"2009-041F","EPOCH":"2026-03-07T08:52:53.926176","MEAN_MOTION":14.95892752,"ECCENTRICITY":0.00631105,"INCLINATION":98.19,"RA_OF_ASC_NODE":214.827,"ARG_OF_PERICENTER":44.2825,"MEAN_ANOMALY":316.3419,"EPHEMERIS_TYPE":0,"CLASSIFICATION_TYPE":"U","NORAD_CAT_ID":35686,"ELEMENT_SET_NO":999,"REV_AT_EPOCH":90115,"BSTAR":0.00023902204,"MEAN_MOTION_DOT":2.715e-5,"MEAN_MOTION_DDOT":0},{"OBJECT_NAME":"PROBA-2","OBJECT_ID":"2009-059B","EPOCH":"2026-03-07T10:48:38.081664","MEAN_MOTION":14.54789813,"ECCENTRICITY":0.0012243,"INCLINATION":98.2429,"RA_OF_ASC_NODE":251.2148,"ARG_OF_PERICENTER":231.6652,"MEAN_ANOMALY":128.3446,"EPHEMERIS_TYPE":0,"CLASSIFICATION_TYPE":"U","NORAD_CAT_ID":36037,"ELEMENT_SET_NO":999,"REV_AT_EPOCH":86673,"BSTAR":0.00011814559,"MEAN_MOTION_DOT":4.61e-6,"MEAN_MOTION_DDOT":0},{"OBJECT_NAME":"APRIZESAT 5","OBJECT_ID":"2011-044E","EPOCH":"2026-03-07T14:14:32.045280","MEAN_MOTION":14.80850321,"ECCENTRICITY":0.00517952,"INCLINATION":98.2402,"RA_OF_ASC_NODE":356.807,"ARG_OF_PERICENTER":331.3432,"MEAN_ANOMALY":28.4935,"EPHEMERIS_TYPE":0,"CLASSIFICATION_TYPE":"U","NORAD_CAT_ID":37792,"ELEMENT_SET_NO":999,"REV_AT_EPOCH":78375,"BSTAR":0.00027830881,"MEAN_MOTION_DOT":2.138e-5,"MEAN_MOTION_DDOT":0},{"OBJECT_NAME":"APRIZESAT 6","OBJECT_ID":"2011-044F","EPOCH":"2026-03-07T15:40:49.891008","MEAN_MOTION":14.76747751,"ECCENTRICITY":0.00443518,"INCLINATION":98.2419,"RA_OF_ASC_NODE":335.0641,"ARG_OF_PERICENTER":51.8566,"MEAN_ANOMALY":11.3431,"EPHEMERIS_TYPE":0,"CLASSIFICATION_TYPE":"U","NORAD_CAT_ID":37793,"ELEMENT_SET_NO":999,"REV_AT_EPOCH":78216,"BSTAR":0.0002058737,"MEAN_MOTION_DOT":1.409e-5,"MEAN_MOTION_DDOT":0},{"OBJECT_NAME":"PROBA-V","OBJECT_ID":"2013-021A","EPOCH":"2026-03-07T13:21:55.698624","MEAN_MOTION":14.23573019,"ECCENTRICITY":0.00053364,"INCLINATION":98.3504,"RA_OF_ASC_NODE":50.2271,"ARG_OF_PERICENTER":74.7424,"MEAN_ANOMALY":285.4345,"EPHEMERIS_TYPE":0,"CLASSIFICATION_TYPE":"U","NORAD_CAT_ID":39159,"ELEMENT_SET_NO":999,"REV_AT_EPOCH":66665,"BSTAR":6.9968129e-5,"MEAN_MOTION_DOT":1.18e-6,"MEAN_MOTION_DDOT":0},{"OBJECT_NAME":"APRIZESAT 7","OBJECT_ID":"2013-066A","EPOCH":"2026-03-07T07:25:58.575936","MEAN_MOTION":14.91274956,"ECCENTRICITY":0.0035665,"INCLINATION":97.76,"RA_OF_ASC_NODE":21.084,"ARG_OF_PERICENTER":186.6338,"MEAN_ANOMALY":173.4414,"EPHEMERIS_TYPE":0,"CLASSIFICATION_TYPE":"U","NORAD_CAT_ID":39416,"ELEMENT_SET_NO":999,"REV_AT_EPOCH":66604,"BSTAR":0.00019536,"MEAN_MOTION_DOT":1.91e-5,"MEAN_MOTION_DDOT":0},{"OBJECT_NAME":"APRIZESAT 8","OBJECT_ID":"2013-066K","EPOCH":"2026-03-07T08:48:58.058496","MEAN_MOTION":14.87417032,"ECCENTRICITY":0.00445909,"INCLINATION":97.8116,"RA_OF_ASC_NODE":15.339,"ARG_OF_PERICENTER":260.8349,"MEAN_ANOMALY":98.7821,"EPHEMERIS_TYPE":0,"CLASSIFICATION_TYPE":"U","NORAD_CAT_ID":39425,"ELEMENT_SET_NO":999,"REV_AT_EPOCH":66453,"BSTAR":0.00022183965,"MEAN_MOTION_DOT":1.986e-5,"MEAN_MOTION_DDOT":0},{"OBJECT_NAME":"BUGSAT-1 (TITA)","OBJECT_ID":"2014-033E","EPOCH":"2026-03-07T15:45:01.029888","MEAN_MOTION":15.14467976,"ECCENTRICITY":0.00291017,"INCLINATION":98.0429,"RA_OF_ASC_NODE":153.3654,"ARG_OF_PERICENTER":165.2912,"MEAN_ANOMALY":194.9172,"EPHEMERIS_TYPE":0,"CLASSIFICATION_TYPE":"U","NORAD_CAT_ID":40014,"ELEMENT_SET_NO":999,"REV_AT_EPOCH":64046,"BSTAR":0.0005996326,"MEAN_MOTION_DOT":0.0001108,"MEAN_MOTION_DDOT":0},{"OBJECT_NAME":"SAUDISAT 4","OBJECT_ID":"2014-033G","EPOCH":"2026-03-07T16:03:23.547456","MEAN_MOTION":14.79385951,"ECCENTRICITY":0.00458506,"INCLINATION":97.7408,"RA_OF_ASC_NODE":216.4121,"ARG_OF_PERICENTER":45.1488,"MEAN_ANOMALY":315.3434,"EPHEMERIS_TYPE":0,"CLASSIFICATION_TYPE":"U","NORAD_CAT_ID":40016,"ELEMENT_SET_NO":999,"REV_AT_EPOCH":63106,"BSTAR":0.0001654669,"MEAN_MOTION_DOT":1.204e-5,"MEAN_MOTION_DDOT":0},{"OBJECT_NAME":"APRIZESAT 9","OBJECT_ID":"2014-033J","EPOCH":"2026-03-07T07:47:29.440320","MEAN_MOTION":14.74068214,"ECCENTRICITY":0.0066671,"INCLINATION":97.8876,"RA_OF_ASC_NODE":202.1193,"ARG_OF_PERICENTER":166.7458,"MEAN_ANOMALY":193.5522,"EPHEMERIS_TYPE":0,"CLASSIFICATION_TYPE":"U","NORAD_CAT_ID":40018,"ELEMENT_SET_NO":999,"REV_AT_EPOCH":62855,"BSTAR":0.00023805,"MEAN_MOTION_DOT":1.571e-5,"MEAN_MOTION_DDOT":0},{"OBJECT_NAME":"APRIZESAT 10","OBJECT_ID":"2014-033K","EPOCH":"2026-03-07T08:29:34.106208","MEAN_MOTION":14.70747554,"ECCENTRICITY":0.00778792,"INCLINATION":97.9474,"RA_OF_ASC_NODE":195.6898,"ARG_OF_PERICENTER":238.471,"MEAN_ANOMALY":120.8874,"EPHEMERIS_TYPE":0,"CLASSIFICATION_TYPE":"U","NORAD_CAT_ID":40019,"ELEMENT_SET_NO":999,"REV_AT_EPOCH":62728,"BSTAR":0.00020185613,"MEAN_MOTION_DOT":1.237e-5,"MEAN_MOTION_DDOT":0},{"OBJECT_NAME":"TECHDEMOSAT-1 (TDS-1)","OBJECT_ID":"2014-037H","EPOCH":"2026-03-07T11:21:10.202400","MEAN_MOTION":15.11517592,"ECCENTRICITY":0.00045341,"INCLINATION":98.378,"RA_OF_ASC_NODE":48.7752,"ARG_OF_PERICENTER":246.4352,"MEAN_ANOMALY":113.6399,"EPHEMERIS_TYPE":0,"CLASSIFICATION_TYPE":"U","NORAD_CAT_ID":40076,"ELEMENT_SET_NO":999,"REV_AT_EPOCH":63285,"BSTAR":0.00090717534,"MEAN_MOTION_DOT":0.00015319,"MEAN_MOTION_DDOT":0}]
